[
    {
        "Altitude(m)": 703187.0888156068,
        "Argument of Periapsis(deg)": 0.0011390121186627068,
        "Eccentricity": 0.0,
        "Inclination(deg)": 45.0,
        "Latitude(deg)": 21.79599034908318,
        "Longitude(deg)": 81.5133581548758,
        "Mean Anomaly(deg)": 148.42602166474805,
        "RAAN(deg)": 24.99892480585418,
        "Satellite Name": "Constellation 1 119",
        "Satellite Number": 119,
        "Semi-Major Axis(m)": 7083131.272910544,
        "Time(s)": 19
    },
    {
        "Altitude(m)": 703183.2115187377,
        "Argument of Periapsis(deg)": 0.0011989601249081123,
        "Eccentricity": 0.0,
        "Inclination(deg)": 45.0,
        "Latitude(deg)": 21.756369729485506,
        "Longitude(deg)": 81.55892003623613,
        "Mean Anomaly(deg)": 148.48672280499798,
        "RAAN(deg)": 24.99886821668861,
        "Satellite Name": "Constellation 1 119",
        "Satellite Number": 119,
        "Semi-Major Axis(m)": 7083131.272910544,
        "Time(s)": 20
    },
    {
        "Altitude(m)": 703179.3466972145,
        "Argument of Periapsis(deg)": 0.001258908131153518,
        "Eccentricity": 0.0,
        "Inclination(deg)": 45.0,
        "Latitude(deg)": 21.716734036791895,
        "Longitude(deg)": 81.6044546632979,
        "Mean Anomaly(deg)": 148.54742394524786,
        "RAAN(deg)": 24.998811627523043,
        "Satellite Name": "Constellation 1 119",
        "Satellite Number": 119,
        "Semi-Major Axis(m)": 7083131.272910544,
        "Time(s)": 21
    },
    {
        "Altitude(m)": 703175.4943847406,
        "Argument of Periapsis(deg)": 0.0013188561373989236,
        "Eccentricity": 0.0,
        "Inclination(deg)": 45.0,
        "Latitude(deg)": 21.677083309196924,
        "Longitude(deg)": 81.6499619272712,
        "Mean Anomaly(deg)": 148.6081250854978,
        "RAAN(deg)": 24.99875503835747,
        "Satellite Name": "Constellation 1 119",
        "Satellite Number": 119,
        "Semi-Major Axis(m)": 7083131.272910544,
        "Time(s)": 22
    },
    {
        "Altitude(m)": 703171.6546149818,
        "Argument of Periapsis(deg)": 0.0013788041436443293,
        "Eccentricity": 0.0,
        "Inclination(deg)": 45.0,
        "Latitude(deg)": 21.63741758484181,
        "Longitude(deg)": 81.69544222363409,
        "Mean Anomaly(deg)": 148.66882622574764,
        "RAAN(deg)": 24.9986984491919,
        "Satellite Name": "Constellation 1 119",
        "Satellite Number": 119,
        "Semi-Major Axis(m)": 7083131.272910544,
        "Time(s)": 23
    },
    {
        "Altitude(m)": 703167.8274215605,
        "Argument of Periapsis(deg)": 0.001438752149889735,
        "Eccentricity": 0.0,
        "Inclination(deg)": 45.0,
        "Latitude(deg)": 21.59773690181378,
        "Longitude(deg)": 81.74089544354982,
        "Mean Anomaly(deg)": 148.72952736599757,
        "RAAN(deg)": 24.998641860026332,
        "Satellite Name": "Constellation 1 119",
        "Satellite Number": 119,
        "Semi-Major Axis(m)": 7083131.272910544,
        "Time(s)": 24
    },
    {
        "Altitude(m)": 703164.0128380373,
        "Argument of Periapsis(deg)": 0.0014987001561351404,
        "Eccentricity": 0.0,
        "Inclination(deg)": 45.0,
        "Latitude(deg)": 21.55804129814701,
        "Longitude(deg)": 81.7863216462547,
        "Mean Anomaly(deg)": 148.79022850624744,
        "RAAN(deg)": 24.998585270860765,
        "Satellite Name": "Constellation 1 119",
        "Satellite Number": 119,
        "Semi-Major Axis(m)": 7083131.272910544,
        "Time(s)": 25
    },
    {
        "Altitude(m)": 703160.2108979495,
        "Argument of Periapsis(deg)": 0.001558648162380546,
        "Eccentricity": 0.0,
        "Inclination(deg)": 45.0,
        "Latitude(deg)": 21.518330811822047,
        "Longitude(deg)": 81.83172089096158,
        "Mean Anomaly(deg)": 148.85092964649738,
        "RAAN(deg)": 24.998528681695195,
        "Satellite Name": "Constellation 1 119",
        "Satellite Number": 119,
        "Semi-Major Axis(m)": 7083131.272910544,
        "Time(s)": 26
    },
    {
        "Altitude(m)": 703156.4216347728,
        "Argument of Periapsis(deg)": 0.0016185961686259519,
        "Eccentricity": 0.0,
        "Inclination(deg)": 45.0,
        "Latitude(deg)": 21.4786054807665,
        "Longitude(deg)": 81.87709323685893,
        "Mean Anomaly(deg)": 148.91163078674725,
        "RAAN(deg)": 24.99847209252962,
        "Satellite Name": "Constellation 1 119",
        "Satellite Number": 119,
        "Semi-Major Axis(m)": 7083131.272910544,
        "Time(s)": 27
    },
    {
        "Altitude(m)": 703152.6450819368,
        "Argument of Periapsis(deg)": 0.0016785441748713573,
        "Eccentricity": 0.0,
        "Inclination(deg)": 45.0,
        "Latitude(deg)": 21.438865342854758,
        "Longitude(deg)": 81.92243874311131,
        "Mean Anomaly(deg)": 148.97233192699719,
        "RAAN(deg)": 24.998415503364054,
        "Satellite Name": "Constellation 1 119",
        "Satellite Number": 119,
        "Semi-Major Axis(m)": 7083131.272910544,
        "Time(s)": 28
    },
    {
        "Altitude(m)": 703148.8812728274,
        "Argument of Periapsis(deg)": 0.001738492181116763,
        "Eccentricity": 0.0,
        "Inclination(deg)": 45.0,
        "Latitude(deg)": 21.39911043590831,
        "Longitude(deg)": 81.96775746885895,
        "Mean Anomaly(deg)": 149.03303306724706,
        "RAAN(deg)": 24.998358914198484,
        "Satellite Name": "Constellation 1 119",
        "Satellite Number": 119,
        "Semi-Major Axis(m)": 7083131.272910544,
        "Time(s)": 29
    },
    {
        "Altitude(m)": 703145.1302407886,
        "Argument of Periapsis(deg)": 0.0017984401873621684,
        "Eccentricity": 0.0,
        "Inclination(deg)": 45.0,
        "Latitude(deg)": 21.35934079769556,
        "Longitude(deg)": 82.01304930512066,
        "Mean Anomaly(deg)": 149.09373420749696,
        "RAAN(deg)": 24.998302325032917,
        "Satellite Name": "Constellation 1 119",
        "Satellite Number": 119,
        "Semi-Major Axis(m)": 7083131.272910544,
        "Time(s)": 30
    },
    {
        "Altitude(m)": 703141.3920191057,
        "Argument of Periapsis(deg)": 0.0018583881936075745,
        "Eccentricity": 0.0,
        "Inclination(deg)": 45.0,
        "Latitude(deg)": 21.31955646593261,
        "Longitude(deg)": 82.05831464718196,
        "Mean Anomaly(deg)": 149.15443534774687,
        "RAAN(deg)": 24.998245735867346,
        "Satellite Name": "Constellation 1 119",
        "Satellite Number": 119,
        "Semi-Major Axis(m)": 7083131.272910544,
        "Time(s)": 31
    },
    {
        "Altitude(m)": 703137.6666410309,
        "Argument of Periapsis(deg)": 0.0019183361998529795,
        "Eccentricity": 0.0,
        "Inclination(deg)": 45.0,
        "Latitude(deg)": 21.279757478282626,
        "Longitude(deg)": 82.10355338601241,
        "Mean Anomaly(deg)": 149.21513648799677,
        "RAAN(deg)": 24.998189146701773,
        "Satellite Name": "Constellation 1 119",
        "Satellite Number": 119,
        "Semi-Major Axis(m)": 7083131.272910544,
        "Time(s)": 32
    },
    {
        "Altitude(m)": 703133.9541397496,
        "Argument of Periapsis(deg)": 0.0019782842060983856,
        "Eccentricity": 0.0,
        "Inclination(deg)": 45.0,
        "Latitude(deg)": 21.239943872356335,
        "Longitude(deg)": 82.14876558065399,
        "Mean Anomaly(deg)": 149.27583762824665,
        "RAAN(deg)": 24.998132557536206,
        "Satellite Name": "Constellation 1 119",
        "Satellite Number": 119,
        "Semi-Major Axis(m)": 7083131.272910544,
        "Time(s)": 33
    },
    {
        "Altitude(m)": 703130.2545484224,
        "Argument of Periapsis(deg)": 0.0020382322123437906,
        "Eccentricity": 0.0,
        "Inclination(deg)": 45.0,
        "Latitude(deg)": 21.200115685711996,
        "Longitude(deg)": 82.19395129012378,
        "Mean Anomaly(deg)": 149.33653876849658,
        "RAAN(deg)": 24.99807596837064,
        "Satellite Name": "Constellation 1 119",
        "Satellite Number": 119,
        "Semi-Major Axis(m)": 7083131.272910544,
        "Time(s)": 34
    },
    {
        "Altitude(m)": 703126.5679001423,
        "Argument of Periapsis(deg)": 0.002098180218589197,
        "Eccentricity": 0.0,
        "Inclination(deg)": 45.0,
        "Latitude(deg)": 21.160272955855692,
        "Longitude(deg)": 82.23911057341374,
        "Mean Anomaly(deg)": 149.39723990874643,
        "RAAN(deg)": 24.99801937920507,
        "Satellite Name": "Constellation 1 119",
        "Satellite Number": 119,
        "Semi-Major Axis(m)": 7083131.272910544,
        "Time(s)": 35
    },
    {
        "Altitude(m)": 703122.8942279693,
        "Argument of Periapsis(deg)": 0.002158128224834602,
        "Eccentricity": 0.0,
        "Inclination(deg)": 45.0,
        "Latitude(deg)": 21.120415720241347,
        "Longitude(deg)": 82.28424348949076,
        "Mean Anomaly(deg)": 149.45794104899636,
        "RAAN(deg)": 24.9979627900395,
        "Satellite Name": "Constellation 1 119",
        "Satellite Number": 119,
        "Semi-Major Axis(m)": 7083131.272910544,
        "Time(s)": 36
    },
    {
        "Altitude(m)": 703119.2335649085,
        "Argument of Periapsis(deg)": 0.002218076231080008,
        "Eccentricity": 0.0,
        "Inclination(deg)": 45.0,
        "Latitude(deg)": 21.08054401627073,
        "Longitude(deg)": 82.32934992919934,
        "Mean Anomaly(deg)": 149.51864218924624,
        "RAAN(deg)": 24.997906200873928,
        "Satellite Name": "Constellation 1 119",
        "Satellite Number": 119,
        "Semi-Major Axis(m)": 7083131.272910544,
        "Time(s)": 37
    }
]